NORAD_CAT_ID,OBJECT_NAME,OBJECT_TYPE,EPOCH,MEAN_MOTION,ECCENTRICITY,INCLINATION,RA_OF_ASC_NODE,ARG_OF_PERICENTER,MEAN_ANOMALY,BSTAR,MEAN_MOTION_DOT,MEAN_MOTION_DDOT,TLE_LINE0,TLE_LINE1,TLE_LINE2,SEMIMAJOR_AXIS,PERIOD,APOGEE,PERIGEE,DECAYED
56780.0,STARLINK-5963,PAYLOAD,2023-06-13 22:00:00,15.76773987,0.0003295,70.0035,15.0048,272.6646,277.2339,-0.0059074,-0.00861732,0.0,0 STARLINK-5963,1 56780U 23078P   23164.91667824 -.00861732  00000-0 -59074-2 0  9991,2 56780  70.0035  15.0048 0003295 272.6646 277.2339 15.76773987  1300,6717.725,91.326,341.803,337.376,0.0
56780.0,STARLINK-5963,PAYLOAD,2023-06-14 14:00:01,15.75525227,0.0003441,70.0035,13.1132,267.5975,103.8631,-0.0068764,-0.00940377,0.0,0 STARLINK-5963,1 56780U 23078P   23165.58334491 -.00940377  00000-0 -68764-2 0  9995,2 56780  70.0035  13.1132 0003441 267.5975 103.8631 15.75525227  1304,6721.274,91.398,345.452,340.826,0.0
56780.0,STARLINK-5963,PAYLOAD,2023-06-14 20:00:01,15.74984,0.0003458,70.0035,12.4046,271.436,77.3372,-0.0065183,-0.00877156,0.0,0 STARLINK-5963,1 56780U 23078P   23165.83334491 -.00877156  00000-0 -65183-2 0  9999,2 56780  70.0035  12.4046 0003458 271.4360  77.3372 15.74984000  2596,6722.814,91.43,347.003,342.354,0.0
56780.0,STARLINK-5963,PAYLOAD,2023-06-14 22:00:00,15.74822195,0.0003364,70.0036,12.1688,274.7467,186.3534,-0.0064978,-0.00869039,0.0,0 STARLINK-5963,1 56780U 23078P   23165.91667824 -.00869039  00000-0 -64978-2 0  9999,2 56780  70.0036  12.1688 0003364 274.7467 186.3534 15.74822195  1301,6723.274,91.439,347.401,342.877,0.0
56780.0,STARLINK-5963,PAYLOAD,2023-06-15 12:00:02,15.73548309,0.0002658,70.0032,10.5183,264.9577,261.2441,-0.0055806,-0.00718748,0.0,0 STARLINK-5963,1 56780U 23078P   23166.50002315 -.00718748  00000-0 -55806-2 0  9993,2 56780  70.0032  10.5183 0002658 264.9577 261.2441 15.73548309  2691,6726.902,91.513,350.555,346.979,0.0
56780.0,STARLINK-5963,PAYLOAD,2023-06-15 14:00:01,15.73467151,0.000289,70.0034,10.2828,264.1856,13.8383,-0.0064177,-0.00814452,0.0,0 STARLINK-5963,1 56780U 23078P   23166.58334491 -.00814452  00000-0 -64177-2 0  9994,2 56780  70.0034  10.2828 0002890 264.1856  13.8383 15.73467151  1304,6727.134,91.518,350.943,347.054,0.0
56780.0,STARLINK-5963,PAYLOAD,2023-06-15 20:00:01,15.73024908,0.000314,70.0028,9.5765,270.7199,342.8007,-0.0070492,-0.00871822,0.0,0 STARLINK-5963,1 56780U 23078P   23166.83334491 -.00871822  00000-0 -70492-2 0  9993,2 56780  70.0028   9.5765 0003140 270.7199 342.8007 15.73024908  2757,6728.394,91.543,352.372,348.147,0.0
56780.0,STARLINK-5963,PAYLOAD,2023-06-16 01:01:54,15.72841342,0.0001951,70.0028,8.9847,275.466,84.6315,-0.0045124,-0.00573404,0.0,0 STARLINK-5963,1 56780U 23078P   23167.04298643 -.00573404  00000-0 -45124-2 0  9994,2 56780  70.0028   8.9847 0001951 275.4660  84.6315 15.72841342  2788,6728.918,91.554,352.096,349.47,0.0
56780.0,STARLINK-5963,PAYLOAD,2023-06-16 12:00:00,15.71745733,0.0003697,70.0024,7.695,268.8123,157.2825,-0.0076739,-0.00896251,0.0,0 STARLINK-5963,1 56780U 23078P   23167.50001157 -.00896251  00000-0 -76739-2 0  9991,2 56780  70.0024   7.6950 0003697 268.8123 157.2825 15.71745733  2851,6732.045,91.618,356.398,351.421,0.0
56780.0,STARLINK-5963,PAYLOAD,2023-06-16 14:00:01,15.71603343,0.0003589,70.0027,7.4602,267.0991,270.3435,-0.0080386,-0.00929365,0.0,0 STARLINK-5963,1 56780U 23078P   23167.58334491 -.00929365  00000-0 -80386-2 0  9995,2 56780  70.0027   7.4602 0003589 267.0991 270.3435 15.71603343  1303,6732.451,91.626,356.732,351.9,0.0
56780.0,STARLINK-5963,PAYLOAD,2023-06-16 22:00:00,15.7090089,0.0003656,70.0026,6.521,272.6961,349.6901,-0.0075609,-0.00856206,0.0,0 STARLINK-5963,1 56780U 23078P   23167.91667824 -.00856206  00000-0 -75609-2 0  9996,2 56780  70.0026   6.5210 0003656 272.6961 349.6901 15.70900890  1305,6734.458,91.667,358.785,353.861,0.0
56780.0,STARLINK-5963,PAYLOAD,2023-06-17 09:06:57,15.70371659,0.0003321,70.0026,5.218,273.5523,86.5294,-0.0039256,-0.00455924,0.0,0 STARLINK-5963,1 56780U 23078P   23168.37982720 -.00455924  00000-0 -39256-2 0  9992,2 56780  70.0026   5.2180 0003321 273.5523  86.5294 15.70371659  2993,6735.971,91.698,360.073,355.599,0.0
56780.0,STARLINK-5963,PAYLOAD,2023-06-17 12:10:26,15.7020397,0.0003603,70.0025,4.8597,271.9234,88.1549,-0.0033823,-0.00393042,0.0,0 STARLINK-5963,1 56780U 23078P   23168.50725300 -.00393042  00000-0 -33823-2 0  9992,2 56780  70.0025   4.8597 0003603 271.9234  88.1549 15.70203970  2758,6736.451,91.708,360.743,355.888,0.0
56780.0,STARLINK-5963,PAYLOAD,2023-06-17 21:20:56,15.7001016,0.0003744,70.0023,3.7853,274.2423,85.8345,-0.00073557,-0.00088059,0.0,0 STARLINK-5963,1 56780U 23078P   23168.88954826 -.00088059  00000-0 -73557-3 0  9998,2 56780  70.0023   3.7853 0003744 274.2423  85.8345 15.70010160  2813,6737.005,91.719,361.392,356.348,0.0
56780.0,STARLINK-5963,PAYLOAD,2023-06-18 04:00:00,15.69940307,0.0003649,70.0003,3.0057,271.3564,214.4392,-0.0004697,-0.00056354,0.0,0 STARLINK-5963,1 56780U 23078P   23169.16667824 -.00056354  00000-0 -46970-3 0  9991,2 56780  70.0003   3.0057 0003649 271.3564 214.4392 15.69940307  3117,6737.205,91.723,361.528,356.611,0.0
56780.0,STARLINK-5963,PAYLOAD,2023-06-18 12:00:00,15.69926541,0.0003655,70.0006,2.0684,265.5138,303.6116,6.899e-05,8.092e-05,0.0,0 STARLINK-5963,1 56780U 23078P   23169.50001157  .00008092  00000-0  68990-4 0  9991,2 56780  70.0006   2.0684 0003655 265.5138 303.6116 15.69926541  3168,6737.244,91.724,361.572,356.647,0.0
56780.0,STARLINK-5963,PAYLOAD,2023-06-18 12:38:29,15.69939499,0.0003466,70.0021,1.9934,262.4607,97.6195,0.00013246,0.00015755,0.0,0 STARLINK-5963,1 56780U 23078P   23169.52672516  .00015755  00000-0  13246-3 0  9993,2 56780  70.0021   1.9934 0003466 262.4607  97.6195 15.69939499  2913,6737.207,91.723,361.407,356.737,0.0
56780.0,STARLINK-5963,PAYLOAD,2023-06-18 22:00:00,15.69894768,0.000357,70.0006,0.8966,273.6861,129.6324,0.00051837,0.00062509,0.0,0 STARLINK-5963,1 56780U 23078P   23169.91667824  .00062509  00000-0  51837-3 0  9999,2 56780  70.0006   0.8966 0003570 273.6861 129.6324 15.69894768  1302,6737.335,91.726,361.605,356.795,0.0
56780.0,STARLINK-5963,PAYLOAD,2023-06-19 04:00:00,15.69962892,0.0003523,70.0003,0.1938,271.2223,104.5822,-0.00077254,-0.00092243,0.0,0 STARLINK-5963,1 56780U 23078P   23170.16667824 -.00092243  00000-0 -77254-3 0  9999,2 56780  70.0003   0.1938 0003523 271.2223 104.5822 15.69962892  3272,6737.14,91.722,361.379,356.632,0.0
56780.0,STARLINK-5963,PAYLOAD,2023-06-19 08:31:15,15.69949105,0.0003587,70.0008,359.6649,270.6846,89.3939,0.0002428,0.00029115,0.0,0 STARLINK-5963,1 56780U 23078P   23170.35504200  .00029115  00000-0  24280-3 0  9995,2 56780  70.0008 359.6649 0003587 270.6846  89.3939 15.69949105  3307,6737.18,91.723,361.461,356.628,0.0
56780.0,STARLINK-5963,PAYLOAD,2023-06-19 13:06:31,15.69933763,0.0003638,70.0008,359.1269,267.2461,92.8318,0.00011062,0.00013115,0.0,0 STARLINK-5963,1 56780U 23078P   23170.54619348  .00013115  00000-0  11062-3 0  9993,2 56780  70.0008 359.1269 0003638 267.2461  92.8318 15.69933763  3079,6737.224,91.724,361.54,356.638,0.0
56780.0,STARLINK-5963,PAYLOAD,2023-06-19 20:00:01,15.69884174,0.0003649,70.0006,358.3196,273.7396,268.7575,0.00046363,0.00055817,0.0,0 STARLINK-5963,1 56780U 23078P   23170.83334491  .00055817  00000-0  46363-3 0  9995,2 56780  70.0006 358.3196 0003649 273.7396 268.7575 15.69884174  3371,6737.365,91.727,361.689,356.772,0.0
56780.0,STARLINK-5963,PAYLOAD,2023-06-20 12:00:00,15.69929025,0.0003688,70.0003,356.445,269.0002,80.1526,-8.573e-05,-0.00010511,0.0,0 STARLINK-5963,1 56780U 23078P   23171.50001157 -.00010511  00000-0 -85730-4 0  9996,2 56780  70.0003 356.4450 0003688 269.0002  80.1526 15.69929025  3484,6737.237,91.724,361.587,356.617,0.0
56780.0,STARLINK-5963,PAYLOAD,2023-06-20 14:00:01,15.69937759,0.0003714,70.0005,356.2104,270.1987,189.7868,-0.00027286,-0.00032915,0.0,0 STARLINK-5963,1 56780U 23078P   23171.58334491 -.00032915  00000-0 -27286-3 0  9997,2 56780  70.0005 356.2104 0003714 270.1987 189.7868 15.69937759  1302,6737.212,91.723,361.579,356.575,0.0
56780.0,STARLINK-5963,PAYLOAD,2023-06-20 22:00:00,15.69896602,0.0003707,70.0004,355.2732,276.8289,266.4986,0.00045494,0.00054789,0.0,0 STARLINK-5963,1 56780U 23078P   23171.91667824  .00054789  00000-0  45494-3 0  9995,2 56780  70.0004 355.2732 0003707 276.8289 266.4986 15.69896602  1302,6737.33,91.726,361.692,356.697,0.0
56780.0,STARLINK-5963,PAYLOAD,2023-06-21 01:48:34,15.69935924,0.000369,70.0005,354.8275,274.2455,85.8319,0.00016121,0.00019226,0.0,0 STARLINK-5963,1 56780U 23078P   23172.07539566  .00019226  00000-0  16121-3 0  9996,2 56780  70.0005 354.8275 0003690 274.2455  85.8319 15.69935924  3573,6737.217,91.723,361.568,356.596,0.0
56780.0,STARLINK-5963,PAYLOAD,2023-06-21 12:30:50,15.69930408,0.0003787,70.0007,353.5728,273.0868,86.9894,0.00017043,0.00020336,0.0,0 STARLINK-5963,1 56780U 23078P   23172.52141513  .00020336  00000-0  17043-3 0  9995,2 56780  70.0007 353.5728 0003787 273.0868  86.9894 15.69930408  3646,6737.233,91.724,361.649,356.547,0.0
56780.0,STARLINK-5963,PAYLOAD,2023-06-21 14:02:35,15.69933487,0.0003827,70.0006,353.394,274.6103,85.4656,0.00016985,0.00020269,0.0,0 STARLINK-5963,1 56780U 23078P   23172.58513088  .00020269  00000-0  16985-3 0  9990,2 56780  70.0006 353.3940 0003827 274.6103  85.4656 15.69933487  3395,6737.224,91.724,361.668,356.511,0.0
56780.0,STARLINK-5963,PAYLOAD,2023-06-21 20:09:35,15.69959569,0.0003791,70.0008,352.6776,272.5912,87.485,0.00034443,0.00041471,0.0,0 STARLINK-5963,1 56780U 23078P   23172.83999391  .00041471  00000-0  34443-3 0  9990,2 56780  70.0008 352.6776 0003791 272.5912  87.4850 15.69959569  3433,6737.15,91.722,361.569,356.461,0.0
56780.0,STARLINK-5963,PAYLOAD,2023-06-22 00:44:51,15.69928467,0.0003897,70.001,352.1397,273.5356,86.5394,0.00024652,0.00029542,0.0,0 STARLINK-5963,1 56780U 23078P   23173.03114742  .00029542  00000-0  24652-3 0  9998,2 56780  70.0010 352.1397 0003897 273.5356  86.5394 15.69928467  3728,6737.239,91.724,361.729,356.478,0.0
